       "'0 THORAD AGENA D DEB\\n1 04746U 70025CV  23079.00793544  .07061266  80093-1  29424-1 0  9999\\n2 04746  99.9446  90.5481 0018679 175.0199 185.1255 15.90894764712251\\n0 TITAN 34B AGENA D R/B\\n1 14238U 83078B   23080.30000000 -.00000021  00000-0  00000+0 0  9993\\n2 14238  63.3780 330.5980 6960199 275.8080 275.1550  2.61878748 32758\\n0 COSMOS 249 DEB *\\n1 14417U 68091CT  23087.52359789  .07010052  15739+0  76715-2 0  9996\\n2 14417  62.1983 154.7803 0005700  56.1183 304.0505 16.15159546 43302\\n0 ARIANE 1 DEB\\n1 17155U 86019AJ  23074.09877469  .06956745  14188+0  16328-1 0  9993\\n2 17155  98.9804 139.3081 0012202 291.1071  68.8899 16.04148162917853\\n0 COSMOS 1579 COOLANT\\n1 26523U 84069Q   23073.67133381  .00000322  00000-0  32452-3 0  9998\\n2 26523  65.0467  94.2908 0032630  41.9429 318.4125 13.91412851485997\\n0 DMSP 5D-2 F11 DEB\\n1 28313U 91082AA  23081.10801530  .00541657  00000-0  19820-1 0  9998\\n2 28313  98.7090 295.7356 0010851 326.8507  33.2046 15.25955404992418\\n0 DMSP 5D-2 F11 DEB\\n1 29086U 91082CF  23083.36215931  .00581649  00000-0  75754-1 0  9993\\n2 29086  98.6310 227.1398 0004554 295.5036 119.6802 14.78393034939352\\n0 CZ-4B R/B\\n1 29093U 06015B   23085.74775420  .15333017  27409-5  28174-3 0  9994\\n2 29093  97.5381 334.9836 0007219 250.1381 186.7198 16.47298370944029\\n0 FENGYUN 1C DEB\\n1 30180U 99025UM  23075.26595626  .05792979  00000-0  24282-1 0  9992\\n2 30180  98.9866 345.5447 0014917 183.2126 176.9043 15.80925203863346\\n0 FENGYUN 1C DEB\\n1 30611U 99025AMS 23087.64595021  .07962247  31882-5  25166-2 0  9994\\n2 30611  98.5742 336.7128 0016645 226.6488 133.3414 16.26022459877712\\n0 FENGYUN 1C DEB\\n1 30835U 99025AVV 23083.19150373  .21674143  35589-5  39962-2 0  9993\\n2 30835  98.7026  60.6826 0003540 217.9300 142.1742 16.32333107873878\\n0 FENGYUN 1C DEB\\n1 31670U 99025CCC 23083.42449985  .00012056  00000-0  11767-1 0  9990\\n2 31670  98.4220  69.4232 0265626  70.1254 292.8309 13.64841721487139\\n0 FENGYUN 1C DEB\\n1 31759U 99025CFJ 23082.15294407  .00067379  00000-0  87810-2 0  9995\\n2 31759  98.5702 152.2075 0004013 179.2263 209.2959 14.80224590571204\\n0 CBERS 1 DEB\\n1 32084U 99057QY  23083.41408861  .00537636  00000-0  48792-1 0  9996\\n2 32084  98.2619 146.8508 0004497 242.0639 181.2944 14.93101720509861\\n0 FENGYUN 1C DEB\\n1 32158U 99025CTC 23083.47509739  .00047072  00000-0  10059-1 0  9990\\n2 32158  99.1139 164.7778 0036069 340.9169  19.0674 14.58174904825970\\n0 FENGYUN 1C DEB\\n1 32344U 99025CYM 23082.13693725  .00234620  00000-0  47729-2 0  9990\\n2 32344 100.3052  34.7275 0054127  86.5901 274.1527 15.43835036860184\\n0 FENGYUN 1C DEB\\n1 32443U 99025DBF 23083.15520288  .00081248  00000-0  32172-1 0  9997\\n2 32443 102.1193  37.8146 0079820  57.0978 303.7837 14.26599803815738\\n0 FENGYUN 1C DEB\\n1 33708U 99025DGV 23075.05384688  .01045915  00000-0  14755-1 0  9993\\n2 33708  99.4261 275.1089 0019562 256.9847 102.9216 15.53799823827011\\n0 IRIDIUM 33 DEB\\n1 34150U 97051ED  23087.18387339  .08370273  14053+0  38454-1 0  9994\\n2 34150  86.3324 141.3149 0017959 271.0067  88.9157 15.90539891745002\\n0 IRIDIUM 33 DEB\\n1 34155U 97051EJ  23080.51955278  .35284314  00000-0  57289-1 0  9997\\n2 34155  86.4285 118.2651 0010110 169.8409 190.3082 15.96209590745967\\n0 IRIDIUM 33 DEB\\n1 34359U 97051FB  23074.58164919  .04514934  00000-0  29796-1 0  9999\\n2 34359  86.3008  15.5519 0032185 136.9231 223.4568 15.71121811749807\\n0 IRIDIUM 33 DEB\\n1 34522U 97051HP  23082.44454195  .04417375  00000-0  46598-1 0  9993\\n2 34522  86.2721  75.4375 0018603 148.5123 211.7259 15.60288500742552\\n0 COSMOS 2251 DEB\\n1 34725U 93036YT  23079.66870768  .03877100  00000-0  36183-1 0  9999\\n2 34725  74.1609 175.6873 0032095 322.8910  37.0091 15.62931476743818\\n0 COSMOS 2251 DEB\\n1 34759U 93036AAD 23074.42196315  .01463179  00000-0  27911-1 0  9998\\n2 34759  73.9912 340.3693 0028713 176.1001 184.0439 15.44870160748774\\n0 FENGYUN 1C DEB\\n1 35163U 99025DMT 23083.27644931  .00041585  00000-0  81560-2 0  9990\\n2 35163  99.1356 260.3944 0109523 319.3717  39.9344 14.58769989540829\\n0 METEOR 2-6 DEB\\n1 35426U 80073J   23083.11926864  .00016512  00000-0  54026-2 0  9995\\n2 35426  81.2405  11.1224 0017265 181.8784 178.2341 14.38319423925304\\n0 IRIDIUM 33 DEB\\n1 35487U 97051QH  23081.93662344  .01163431  00000-0  31384-1 0  9999\\n2 35487  86.3246  65.2381 0023795 174.0564 186.0975 15.34679734732553\\n0 COSMOS 2251 DEB\\n1 35769U 93036ARP 23083.16026368  .00119278  00000-0  26816-1 0  9991\\n2 35769  74.0730 235.0447 0064505 141.1001 219.4830 14.54414391511051\\n0 COSMOS 2251 DEB\\n1 35831U 93036ATD 23074.11553055  .00042044  00000-0  91662-2 0  9992\\n2 35831  74.0108 235.5762 0031398 172.0674 188.0994 14.57353635455222\\n0 IRIDIUM 33 DEB\\n1 35853U 97051TD  23082.21615449  .00275078  00000-0  20394-1 0  9991\\n2 35853  86.2852  53.1795 0027076  30.3801 329.8994 15.01428415716171\\n0 IRIDIUM 33 DEB\\n1 35856U 97051TG  23083.13590874  .05783050  00000-0  47264-1 0  9994\\n2 35856  86.3229  30.7367 0010562 179.4276 180.7006 15.65845103559992\\n0 COSMOS 2251 DEB\\n1 36004U 93036AWW 23083.40883603  .02381450  39618-2  61841-2 0  9996\\n2 36004  73.8872 192.5203 0029775 322.5126  37.4032 15.95082893755212\\n0 FENGYUN 1C DEB\\n1 36241U 99025DVS 23082.33065948  .00894419  00000-0  42528-2 0  9992\\n2 36241  98.2444  36.0514 0038144  56.1200 304.3683 15.79701544766146\\n0 COSMOS 2251 DEB\\n1 36447U 93036BAW 23078.47106733  .00165327  00000-0  39250-2 0  9991\\n2 36447  73.9318 136.4370 0045293 292.7619  66.8805 15.39926353729737\\n0 FENGYUN 1C DEB\\n1 36730U 99025EBC 23083.02058115  .00115130  00000-0  26423-1 0  9991\\n2 36730  99.6523 108.0433 0028108  23.5353   5.1661 14.54515926585474\\n0 METEOR 2-5 DEB\\n1 36906U 79095AX  23083.43776891  .00300423  00000-0  47116-1 0  9997\\n2 36906  81.1713 249.0978 0005731 314.7602  45.3135 14.70743409 47422\\n0 METEOR 2-5 DEB\\n1 36916U 79095BH  23083.20787870  .00206649  00000-0  38437-1 0  9993\\n2 36916  81.1934 267.0932 0015534   9.0773 351.0705 14.63720155481037\\n0 COSMOS 2251 DEB\\n1 37544U 93036BNZ 23077.89429239  .00339935  00000-0  10514-1 0  9993\\n2 37544  73.9441 141.8617 0032107 310.2118  49.6276 15.31542106487461\\n0 IRIDIUM 33 DEB\\n1 37555U 97051XQ  23076.54217351  .05089870  00000-0  35907-1 0  9995\\n2 37555  86.3648 127.1815 0012943 308.6447  51.3664 15.70066053529620\\n0 IRIDIUM 33 DEB\\n1 37557U 97051XS  23083.51399224  .00106747  00000-0  25711-1 0  9992\\n2 37557  86.3717 172.4878 0086694 244.3651 114.8579 14.50342782707955\\n0 FENGYUN 1C DEB\\n1 37904U 99025END 23083.39470755  .00143131  00000-0  36931-1 0  9990\\n2 37904  98.2990 245.0103 0064681  33.1049 327.4167 14.47807156477698\\n0 FENGYUN 1C DEB\\n1 37913U 99025ENN 23083.30360374  .00778416  00000-0  73228-1 0  9996\\n2 37913  98.8818  26.3234 0073313 229.9704 129.5063 14.89360477654108\\n0 COSMOS 2251 DEB\\n1 38188U 93036BSC 23083.22989897  .00076979  00000-0  19878-1 0  9991\\n2 38188  74.0131 253.3793 0039132 224.1282 310.3224 14.49000309617927\\n0 COSMOS 2251 DEB\\n1 38221U 93036BTM 23083.23231310  .00218764  00000-0  21784-1 0  9999\\n2 38221  73.9972 284.6645 0050714 264.0872  95.4527 14.89448305503552\\n0 IRIDIUM 33 DEB\\n1 38233U 97051ZH  23083.37025757  .00137585  00000-0  47173-1 0  9995\\n2 38233  86.2082 116.7057 0145953 175.8650 245.1305 14.29463924514041\\n0 TITAN 3C TRANSTAGE DEB\\n1 38696U 68081W   23085.03716687 -.00000423  00000-0  00000-0 0  9991\\n2 38696   2.3446 324.0564 0216325 320.4955  37.5653  0.99496491 36957\\n0 FENGYUN 1C DEB\\n1 38714U 99025ETF 23083.36513671  .00448645  00000-0  67752-1 0  9995\\n2 38714  97.8488 295.9676 0161570 266.6120  91.6591 14.63841200484192\\n0 PEGASUS DEB\\n1 39313U 94029AEY 23083.22489112  .00738756  00000-0  15283-1 0  9994\\n2 39313  81.7724 244.2698 0039027  14.4033 345.8314 15.42717662535115\\n0 PEGASUS DEB\\n1 39317U 94029AFC 23082.29589791  .00529124  00000-0  32849-2 0  9993\\n2 39317  81.9269  85.0878 0011702  58.1178 302.1221 15.75474060131192\\n0 DMSP 5D-2 F13 DEB\\n1 40561U 95015DU  23083.48691082  .07431172  00000-0  11051+0 0  9992\\n2 40561  98.7968 276.5568 0014980 320.6854  39.3304 15.49903538421752\\n0 FLOCK 2P 9\\n1 41610U 16040M   23078.84713514  .12302716  23931-5  16861-2 0  9995\\n2 41610  97.1605 141.9789 0010293 253.7217 106.2948 16.35125903375698\\n0 FLOCK 2P 8\\n1 41613U 16040Q   23087.33604282  .13923948  23929-5  15533-2 0  9992\\n2 41613  97.1730 151.4487 0013602 265.7495  94.2249 16.36887364377159\\n0 FLOCK 2P 3\\n1 41618U 16040V   23086.95065410  .11034912  23796-5  15286-2 0  9997\\n2 41618  97.1657 151.8237 0012984 261.5412  98.4414 16.34903958377116\\n0 NOAA 16 DEB\\n1 41714U 00055PU  23083.28740264 -.00000338  00000-0 -19802-3 0  9995\\n2 41714  98.9508 102.2058 0114725 225.0614 134.0965 13.97408315347627\\n0 FLOCK 3P 8\\n1 41951U 17008D   23081.10723428  .15446534  24193-5  12444-2 0  9990\\n2 41951  97.1990 153.3956 0011789 270.7594  89.2355 16.39697655340016\\n0 FLOCK 3P 3\\n1 41968U 17008W   23076.94329130  .34309221  24679-5  70325-3 0  9990\\n2 41968  97.1924 148.4165 0012691 262.6704 206.3131 16.46073616339154\\n0 FLOCK 3P 70\\n1 41980U 17008AJ  23078.04276672  .15264798  24261-5  87809-3 0  9999\\n2 41980  97.2111 153.4793 0011015 275.2694  84.7350 16.41204646339534\\n0 FLOCK 3P 33\\n1 41990U 17008AU  23080.30540855  .14203754  24303-5  84460-3 0  9990\\n2 41990  97.2011 149.5668 0012706 268.0020  91.9825 16.40812839339009\\n0 FLOCK 3P 74\\n1 42048U 17008DE  23087.75882437  .15109801  24382-5  64592-3 0  9996\\n2 42048  97.2042 161.3162 0014237 270.4323  89.5346 16.42075425340224\\n0 COSMOS 1275 DEB\\n1 42227U 81053UT  23083.28145174  .00004950  00000-0  45156-2 0  9993\\n2 42227  82.9029  71.7212 0083648 140.2466 220.4864 13.81462034937323\\n0 SL-16 DEB\\n1 42238U 93016CS  23075.06279866  .00037537  00000-0  12597-1 0  9999\\n2 42238  70.9709 223.1614 0108429 131.9854 229.0577 14.33731069988360\\n0 FLOCK 3M 1\\n1 42995U 17068J   23083.58953462  .19232785  25746-5  43914-3 0  9999\\n2 42995  97.4040 206.2029 0014741 297.7855  62.1953 16.45214903300291\\n0 FLOCK 3M 3\\n1 42996U 17068K   23087.34733831  .15180240  25449-5  85737-3 0  9997\\n2 42996  97.4020 209.1756 0012078 277.7070  82.2858 16.41128143300919\\n0 CZ-2D DEB\\n1 43036U 17077C   23084.31168999  .07008598  25373-5  21904-2 0  9991\\n2 43036  97.5160 209.7955 0012269 281.9109  78.0807 16.26367177295948\\n0 CZ-2D DEB\\n1 43105U 18002G   23076.69636838  .10214139  27028-5  14666-2 0  9991\\n2 43105  97.7273 242.8745 0010903 287.6955  72.3150 16.34644393289197\\n0 FLOCK 3PP 1\\n1 43121U 18004L   23087.38934586  .15450135  25168-5  72216-3 0  9992\\n2 43121  97.3331 177.2347 0014355 268.1174  91.8483 16.41641476290427\\n0 FENGMANIU 1\\n1 43192U 18015A   23075.16838495  .09853696  25597-5  22543-2 0  9992\\n2 43192  97.5320 239.1494 0008581 277.2576 207.7039 16.29975082285605\\n0 CENTAURI 2\\n1 43722U 18096D   23076.80000607  .17599409  25221-5  30102-3 0  9991\\n2 43722  97.2953 170.1864 0014793 269.9861  89.9747 16.46870229240518\\n0 3CAT-1\\n1 43728U 18096K   23083.26015397  .06919766  24017-5  21517-2 0  9998\\n2 43728  97.3015 177.5778 0010098 284.2555  75.7615 16.26505649241554\\n0 AOBA VELOX-IV\\n1 43940U 19003J   23083.54085705  .14250908  23356-5  68288-3 0  9991\\n2 43940  97.0293 120.9278 0010706 265.5035  94.5044 16.42052093233535\\n0 OF-2\\n1 45113U 19071C   23078.33163040  .09910951  12392-4  87944-3 0  9992\\n2 45113  51.6072 118.3346 0002391   0.6771 359.4257 16.38334374176268\\n0 ISS DEB (ICS-EF)\\n1 45265U 98067RJ  23076.69689189  .05549710  12361-4  38421-3 0  9995\\n2 45265  51.6111 345.2629 0005665 235.1210 219.3835 16.40340002174728\\n0 QASED R/B\\n1 45530U 20024B   23077.90673787  .18146849  10716-4  25591-3 0  9996\\n2 45530  59.7618 212.3176 0007253 297.8816 160.4393 16.48547435164740\\n0 FREGAT DEB\\n1 45990U 11037GR  23079.82096991  .02831897  00000-0  25206+0 0  9996\\n2 45990  51.5537 301.7209 0497932  95.3480 270.4449 14.29301358117623\\n0 SPACEBEE-10\\n1 46305U 20061AK  23083.86119944  .04441775  53865-1  54130-2 0  9990\\n2 46305  97.3877 164.2682 0014878 286.6211  73.3441 16.13153086141602\\n0 RESURS O1 DEB\\n1 46508U 94074AU  23077.14132316  .01204185  00000-0  10276-1 0  9995\\n2 46508  97.7740 138.4929 0010118 255.8041 104.2094 15.66843606138851\\n0 STARLINK-1649\\n1 46552U 20070W   23083.37519219  .13224810  12164-4  29024-2 0  9992\\n2 46552  53.0042 249.7987 0007459 312.6137  40.6073 16.29633022137883\\n0 ATLAS 5 CENTAUR DEB\\n1 46641U 14055CR  23075.00158149 -.00000042  00000-0  00000-0 0  9998\\n2 46641  20.6811 250.4704 4747753 341.4995   5.7536  1.90292951 16938\\n0 ATLAS 5 CENTAUR DEB\\n1 46645U 14055CV  23086.90272748 -.00000099  00000-0  00000-0 0  9997\\n2 46645  20.7439 251.6910 5061651 337.4142   6.3329  1.83535484 16599\\n0 RESURS O1 DEB\\n1 46888U 94074BU  23081.12419366  .00872179  00000-0  16549-1 0  9994\\n2 46888  97.8503 141.2226 0009675 245.2774 114.7467 15.45904687129296\\n0 RESURS O1 DEB\\n1 46899U 94074CF  23074.12785839  .00959099  00000-0  19618-1 0  9996\\n2 46899  97.8342 134.4166 0011212 252.0380 107.9644 15.43422685128016\\n0 SPACEBEENZ-3\\n1 46938U 20085K   23079.36266274  .09852499  25028-5  20841-2 0  9997\\n2 46938  97.4244 230.6985 0012759 286.2763  73.7128 16.30659471130131\\n0 SPACEBEENZ-4\\n1 46939U 20085L   23087.39745443  .11927900  25187-5  16996-2 0  9995\\n2 46939  97.4255 238.6552 0012635 291.8982  68.0971 16.34646002131358\\n0 IRIDIUM 33 DEB\\n1 46966U 97051ABY 23079.66215551  .00040061  00000-0  12080-1 0  9998\\n2 46966  86.4226 223.0217 0112691  71.1480 290.1898 14.38648404572024\\n0 COSMOS 2251 DEB\\n1 47046U 93036BXA 23083.25541875  .00016884  00000-0  91899-2 0  9990\\n2 47046  73.9072  53.0330 0185637 205.8160 216.2904 14.03812431430858\\n0 COSMOS 2251 DEB\\n1 47069U 93036BXZ 23075.74984327  .00014846  00000-0  39095-2 0  9999\\n2 47069  74.0379 232.9454 0017071 134.1603 226.0985 14.48956262 78533\\n0 RESURS O1 DEB\\n1 47200U 94074CN  23083.38683027  .00494126  00000-0  34393-1 0  9999\\n2 47200  97.9491 144.1324 0009318 191.1181 168.9838 15.03237289129382\\n0 RESURS O1 DEB\\n1 47201U 94074CP  23081.12691414  .00293358  00000-0  76824-2 0  9999\\n2 47201  97.8983 145.6651 0014152 218.7606 141.2623 15.37433706129258\\n0 RESURS O1 DEB\\n1 47205U 94074CR  23083.39435505  .01954491  00000-0  30866-1 0  9999\\n2 47205  97.8759 145.1152 0011577 245.7880 114.2161 15.50341648127899\\n0 CZ-8 R/B\\n1 47301U 20102F   23075.67908066  .37191354  27063-5  30900-3 0  9990\\n2 47301  97.4430 210.8170 0008089 261.1850 224.7119 16.52164188125973\\n0 SPACEBEE-48\\n1 47447U 21006AL  23077.22250132  .18228324  25267-5  18291-2 0  9991\\n2 47447  97.3682 145.5504 0013087 257.7207 102.2626 16.37860909119443\\n0 PHOTON-02\\n1 47972U 21023H   23073.16904674  .70507566  10680-4  26002-3 0  9997\\n2 47972  45.0371 356.7609 0023477 197.7166 269.6278 16.56162484111812\\n0 RESURS O1 DEB\\n1 48510U 94074EM  23073.12589432  .00491799  00000-0  10526-1 0  9995\\n2 48510  97.8086 134.2619 0007941 229.9383 130.1168 15.42864030108991\\n0 RESURS O1 DEB\\n1 48512U 94074EP  23086.90522321  .00472446  00000-0  12989-1 0  9994\\n2 48512  97.8890 146.4315 0008630 247.0216 113.0116 15.35221908110478\\n0 SPACEBEE-96\\n1 48934U 21059BH  23077.78451256  .18799698  26154-5  78703-3 0  9990\\n2 48934  97.5277 222.2973 0011566 284.2746  75.7269 16.42549820 96244\\n0 SPACEBEE-97\\n1 48946U 21059BV  23084.25669750  .11899296  25662-5  27484-2 0  9993\\n2 48946  97.5310 228.7474 0013888 288.1728  71.8053 16.29669845 97226\\n0 SPACEBEE-98\\n1 48949U 21059BY  23085.06483667  .19475489  26431-5  96064-3 0  9995\\n2 48949  97.5404 229.8229 0015881 266.5026  93.4457 16.41167007 97358\\n0 RESURS O1 DEB\\n1 49233U 94074FM  23074.37726728  .02003716  00000-0  47092-1 0  9995\\n2 49233  97.8349 133.8971 0005301 231.2235 128.8536 15.38414656 91019\\n0 ATLAS 5 CENTAUR DEB\\n1 49347U 18079EY  23076.48949681 -.00000044  00000-0  00000-0 0  9998\\n2 49347  10.2850 166.0732 4761710  77.2743 330.1355  1.76352966  9965\\n0 NOAA 17 DEB\\n1 49488U 02032DS  23078.88782607  .00232565  00000-0  35603-1 0  9997\\n2 49488  98.6499  53.3140 0013066  78.1036 282.1633 14.72194435 91451\\n0 COSMOS 1408 DEB\\n1 49554U 82092AT  23087.59838851  .16513012 -13934-5  88890-2 0  9995\\n2 49554  82.1777 343.7877 0025455 191.3856 168.6859 16.18999646 74490\\n0 COSMOS 1408 DEB\\n1 49576U 82092BR  23075.96909867  .21112855 -10613-5  62252-3 0  9995\\n2 49576  82.5737 349.0733 0008996 205.4126 289.6977 16.44590115 74775\\n0 COSMOS 1408 DEB\\n1 49582U 82092BX  23074.26416523  .24319935 -16910-5  41636-2 0  9995\\n2 49582  82.8904  40.5486 0024930 208.8506 151.1414 16.32039758 72735\\n0 COSMOS 1408 DEB\\n1 49593U 82092CJ  23083.08956455  .25263753 -14847-5  43002-2 0  9993\\n2 49593  82.4708 358.4362 0019362 181.5678 178.5560 16.32520980 73962\\n0 COSMOS 1408 DEB\\n1 49612U 82092DD  23081.42308617  .22017438 -15325-5  22158-2 0  9997\\n2 49612  82.8754  30.7300 0019319 187.2577 172.8446 16.37439696 73883\\n0 COSMOS 1408 DEB\\n1 49665U 82092FJ  23083.73571421  .27119849 -14406-5  51279-2 0  9995\\n2 49665  82.9128  28.9607 0018009 172.9227 187.2327 16.31557351 74011\\n0 COSMOS 1408 DEB\\n1 49700U 82092GV  23073.67024530  .13975006 -12853-5  34795-2 0  9999\\n2 49700  82.5575   5.8294 0016807 167.2761 192.8960 16.28718047 72417\\n0 FALCON 9 DEB\\n1 49778U 21115BG  23082.72184191  .11012976  12533-4  36524-3 0  9991\\n2 49778  53.1748 172.1340 0005876 308.1806  51.8715 16.44375445 74354\\n0 COSMOS 1408 DEB\\n1 49839U 82092KW  23080.31137442  .12878289 -11982-5  49281-3 0  9991\\n2 49839  82.5138 336.0196 0009162 239.3740 120.6658 16.43299471 73707\\n0 COSMOS 1408 DEB\\n1 49864U 82092LX  23073.96134876  .14642003 -11797-5  51023-3 0  9996\\n2 49864  82.5408 344.5763 0008993 234.8309 125.2150 16.43767639 74447\\n0 COSMOS 1408 DEB\\n1 50101U 82092UR  23083.78348149  .17557706 -10557-5  61724-3 0  9993\\n2 50101  82.5511 343.3862 0008431 181.6505 178.4770 16.43797054 73754\\n0 COSMOS 1408 DEB\\n1 50108U 82092UY  23075.46039499  .13883124 -11769-5  55702-3 0  9998\\n2 50108  82.6260 348.9526 0010023 211.6974 148.3724 16.42963262 71955\\n0 COSMOS 1408 DEB\\n1 50292U 82092ZH  23075.05685379  .18061610 -10993-5  46757-3 0  9992\\n2 50292  82.5384 348.6627 0009643 192.8105 167.2953 16.45177775 71072\\n0 COSMOS 1408 DEB\\n1 50300U 82092ZR  23083.17720230  .17409209 -10864-5  99353-3 0  9996\\n2 50300  82.5461 346.9493 0009409 183.7782 176.3449 16.41473052 71412\\n0 COSMOS 1408 DEB\\n1 50395U 82092ADH 23087.20442190  .03679286  17410-1  78987-2 0  9991\\n2 50395  82.2339   6.4152 0046679 270.9987  88.5942 15.99489893 73408\\n0 COSMOS 1408 DEB\\n1 50546U 82092AHV 23084.35448040  .15890186 -11131-5  12927-2 0  9990\\n2 50546  82.5356 343.8731 0009434 204.1670 155.9188 16.39857114 70740\\n0 COSMOS 1408 DEB\\n1 50586U 82092AKE 23079.24038723  .12015416 -12472-5  38700-2 0  9997\\n2 50586  82.5220 357.4266 0015362 152.1455 208.0663 16.25894353 69824\\n0 COSMOS 1818 COOLANT\\n1 50778U 87011AT  23074.21573942  .00001431  00000-0  53304-3 0  9990\\n2 50778  65.0123 292.2563 0013065 289.7519  70.2158 14.35294583650144\\n0 COSMOS 1408 DEB\\n1 50890U 82092AUH 23078.67115756  .17881209 -11019-5  15592-2 0  9999\\n2 50890  82.5035 349.8100 0010091 172.7056 187.4392 16.39236743 68610\\n0 COSMOS 1408 DEB\\n1 51325U 82092BET 23083.25197249  .13292867 -12521-5  76515-2 0  9993\\n2 51325  82.5113 354.9918 0017638 181.8516 178.2710 16.18577666 65394\\n0 COSMOS 1408 DEB\\n1 51424U 82092BJW 23077.21152659  .07987064 -12461-5  36513-2 0  9998\\n2 51424  82.4443 351.5955 0019400 190.0929 169.9974 16.21458785 65733\\n0 COSMOS 1408 DEB\\n1 51539U 82092BLQ 23078.76125618  .06336571 -12240-5  29976-2 0  9991\\n2 51539  82.5185 346.5519 0013615 129.3970 230.8527 16.21298502 65176\\n0 ATLAS 5 CENTAUR DEB\\n1 52039U 18079GH  23085.48042778 -.00000129  00000-0  00000-0 0  9995\\n2 52039  12.6090  81.3562 4550855 237.6264  70.2418  2.17886006  8554\\n0 KITSUNE\\n1 52148U 98067TK  23073.14329596  .09149541  12363-4  70924-3 0  9991\\n2 52148  51.6047  41.3705 0001289 197.9420 230.0647 16.39483111 55556\\n0 CZ-2C DEB\\n1 52321U 22043B   23078.31745595  .38415715  25787-5  11908-2 0  9992\\n2 52321  97.4022 164.5172 0015464 293.8232  66.3204 16.43485512 49827\\n0 COSMOS 1408 DEB\\n1 52571U 82092BYU 23075.12287521  .00088951  00000-0  26586-2 0  9996\\n2 52571  82.6060  10.6777 0076941 149.1850 211.3943 15.31294298 53226\\n0 OBJECT BC\\n1 52781U 22057BB  23080.27969160  .01084675  00000-0  86584-2 0  9996\\n2 52781  97.4995 199.7657 0018733 285.6237  74.6789 15.68247604 45493\\n0 COSMOS 1408 DEB\\n1 52809U 82092BZW 23083.22817244  .00383565  00000-0  15315-1 0  9997\\n2 52809  82.5422  13.3651 0145885 178.7830 181.3790 15.14495523 50859\\n0 COSMOS 1408 DEB\\n1 52823U 82092CAJ 23082.40792625  .00436204  00000-0  20363-2 0  9996\\n2 52823  82.4879 341.3033 0016951  98.5086 261.8104 15.81994471 52081\\n0 TIANXING-1\\n1 52901U 22066A   23087.74707463  .11983121  22095-5  86757-4 0  9997\\n2 52901  96.6943 138.3321 0008504 255.2939 245.6389 16.53111553 44612\\n0 COSMOS 1408 DEB\\n1 52921U 82092CAS 23086.97997623  .00030668  00000-0  10156-2 0  9999\\n2 52921  82.5205 350.1635 0082569  88.9566 272.1132 15.27837305 52172\\n0 MINOTAUR 4 DEB\\n1 52975U 20046AC  23083.18029045  .00029524  00000-0  31605-2 0  9994\\n2 52975  54.3013  48.9036 0061412 280.8561  78.5528 14.87130461 62705\\n0 CZ-2D R/B\\n1 53523U 22100B   23087.71844082  .41062929  13444-5  90582-3 0  9998\\n2 53523  34.9703 225.8581 0005301 134.7945   1.1942 16.46558462 34044\\n0 CZ-2D R/B\\n1 53764U 22109E   23086.62717633  .05351182  71021-1  56847-2 0  9992\\n2 53764  34.9726 161.3354 0008496  62.5505  58.8713 16.13828056 31164\\n0 SOYUZ MS-22\\n1 53879U 22116A   23086.56083333  .00024998  00000-0  45015-3 0  9994\\n2 53879  51.6429  12.9576 0005803 136.6906 210.5712 15.49634740 28997\\n0 CZ-6A DEB\\n1 54423U 22151EX  23082.02046476  .04291685  19789-1  16662-1 0  9995\\n2 54423  98.7214 112.1076 0072101 169.3899 190.8909 15.86241697 19549\\n0 CZ-6A DEB\\n1 54882U 22151PT  23075.31840625  .02320270  00000-0  19326+0 0  9990\\n2 54882  98.5472  85.1690 0023967 188.8373 171.2426 14.94976067 15077\\n0 FUTURA-SM3\\n1 55106U 23001DB  23079.96595456  .00255796  00000-0  12947-2 0  9992\\n2 55106  97.4870 142.4572 0020070 282.8711  77.0314 15.80580742 11797\\n0 CZ-6A DEB\\n1 55203U 22151VU  23083.35203747  .02448238  00000-0  36491+0 0  9996\\n2 55203  98.7925  96.5313 0130651 307.8775  51.0666 14.65538601 17312\\n0 STARLINK-5083\\n1 55356U 23013AB  23078.36557620  .00014486  00000-0  50882-4 0  9997\\n2 55356  42.9952  88.5509 0010385 119.0583 241.1333 15.88964105  8233\\n0 FALCON 9 DEB\\n1 55440U 23014BB  23081.19200994  .06137483  43660-5  62635-3 0  9997\\n2 55440  69.9898 305.8645 0009051 243.5714 116.4588 16.37559521  8208\\n0 FALCON 9 DEB\\n1 55442U 23014BD  23078.52406657  .10158131  44339-5  33636-3 0  9997\\n2 55442  69.9857 313.4127 0009380 238.4229 121.6089 16.43912330  7788\\n0 FALCON 9 DEB\\n1 55443U 23014BE  23073.56854080  .10089803  44326-5  40609-3 0  9997\\n2 55443  69.9823 327.8524 0009070 230.2947 129.7487 16.43042136  6996\\n0 FALCON 9 DEB\\n1 55444U 23014BF  23083.14091585  .11116402  44357-5  38858-3 0  9990\\n2 55444  69.9767 300.2197 0009275 250.8118 109.2111 16.43668276  8516\\n0 FALCON 9 DEB\\n1 55445U 23014BG  23074.75970124  .14422415  44752-5  18073-3 0  9996\\n2 55445  69.9894 324.4132 0010246 242.9393 117.0798 16.49100928  7183\\n0 FALCON 9 DEB\\n1 55502U 23015BF  23079.45925382  .04982243  91418-5  75346-3 0  9995\\n2 55502  42.9845 101.7466 0003918 115.5818 244.5477 16.33247570  7510\\n0 FALCON 9 DEB\\n1 55503U 23015BG  23077.31684781  .08188694  92660-5  65713-3 0  9993\\n2 55503  42.9590 114.9168 0002781  91.4482 268.6729 16.38985640  7170\\n0 FALCON 9 DEB\\n1 55504U 23015BH  23075.49086603  .08132338  92698-5  73113-3 0  9998\\n2 55504  42.9642 126.1762 0002613  60.2888 299.8264 16.38023195  6887\\n0 FALCON 9 DEB\\n1 55505U 23015BJ  23076.17594500  .07601035  92542-5  69998-3 0  9993\\n2 55505  42.9679 121.8283 0002969  83.2313 276.8917 16.37811856  6990\\n0 CZ-6A DEB\\n1 55518U 22151XQ  23079.96098663  .00343191  00000-0  54138-1 0  9996\\n2 55518  98.5941  90.6185 0030435 202.7771 157.2084 14.69938966 13318\\n0 SS3 DEB\\n1 55568U 23019G   23076.87514530  .08251143  39302-5  49037-2 0  9996\\n2 55568  37.1735 241.7502 0027127 308.7706 202.8339 16.16481132  5575\\n0 FALCON 9 DEB\\n1 55624U 23020BH  23073.28985274  .02946265  89828-5  10297-2 0  9994\\n2 55624  43.0018 168.6835 0001801 117.4858 242.6212 16.24268123  4818\\n0 FALCON 9 DEB\\n1 55625U 23020BJ  23073.20509451  .03140095  90793-5  74825-3 0  9995\\n2 55625  42.9905 168.8751 0000934  73.8649 286.2342 16.28608920  4804\\n0 FALCON 9 DEB\\n1 55627U 23020BL  23073.30994611  .04866833  91344-5  89701-3 0  9992\\n2 55627  42.9846 167.9094 0001295  65.7449 294.3576 16.31303167  4829\\n0 FALCON 9 DEB\\n1 55792U 23028BD  23073.30333030  .11036909  43779-5  25684-3 0  9995\\n2 55792  69.9662 124.9145 0014138 150.8018 209.4009 16.45097171  2348\\n0 FALCON 9 DEB\\n1 55793U 23028BE  23073.11133451  .15064369  44809-5  16758-3 0  9992\\n2 55793  69.9722 125.4519 0010584 167.7998 192.3497 16.49813001  2312\\n0 CZ-6A DEB\\n1 55865U 22151ZM  23082.99234542  .01613932  00000-0  13968+0 0  9994\\n2 55865  98.5075  92.2097 0026484 260.9257  98.8964 14.93551357  6732\\n0 CZ-6A DEB\\n1 55866U 22151ZN  23075.98544515  .03514892  00000-0  15813+0 0  9998\\n2 55866  98.5003  86.9822 0020773 228.9742 130.9693 15.17114932  5757\\n0 CZ-6A DEB\\n1 55873U 22151ZV  23080.77535055  .13601534  29444-5  72294-2 0  9996\\n2 55873  98.7303 112.5983 0033288 170.1919 190.0022 16.18531073  6781\\n0 CZ-6A DEB\\n1 55877U 22151ZZ  23079.97888088  .07401227  00000-0  17602+0 0  9998\\n2 55877  98.6805  94.4004 0032896 208.2324 151.7134 15.36316625  6208\\n0 CZ-6A DEB\\n1 55889U 22151AAM 23084.97028114  .00190330  00000-0  52443-1 0  9990\\n2 55889  98.5414  90.9570 0096268 317.4126  41.9626 14.42893521 13723\\n0 CZ-6A DEB\\n1 55893U 22151AAR 23079.94405283  .00371250  00000-0  80624-1 0  9996\\n2 55893  98.4733  85.6023 0032699 333.2677  26.6833 14.55597676 13041\\n0 ELECTRON R/B\\n1 55911U 23035D   23076.05114839 -.00002992  94638-5  00000+0 0  9990\\n2 55911  44.0016 312.6145 0095145 136.0353 224.7980 16.12542287    16\\n0 FALCON 9 DEB\\n1 55966U 23037BE  23087.65686427  .07290897  42778-5  65350-3 0  9997\\n2 55966  69.9716 149.8236 0019199 147.5626 212.6788 16.38089264  1916\\n0 FALCON 9 DEB\\n1 55967U 23037BF  23087.70919759  .10918738  44166-5  25754-3 0  9993\\n2 55967  69.9756 149.6031 0011591 162.5204 197.6431 16.45343192  1928\\n0 FALCON 9 DEB\\n1 55968U 23037BG  23087.02153801  .15295706  44720-5  16757-3 0  9994\\n2 55968  69.9771 151.6356 0010812 155.0044 205.1718 16.49889147  1813\\n0 FALCON 9 DEB\\n1 55969U 23037BH  23087.02561071  .08094819  43279-5  40880-3 0  9993\\n2 55969  69.9756 151.6500 0015862 152.5541 207.6532 16.41055628  1814\\n0 KZ-1A R/B\\n1 55977U 23039E   23082.18789964  .46309122  39138-5  47593-3 0  9994\\n2 55977  97.3730 232.8986 0132815  43.8208  46.1430 16.29280491   119\\n0 TBA - TO BE ASSIGNED\\n1 81380U          23083.17838012 +.00161704 +00000+0 +40778-1 0  9991\\n2 81380  99.8547  51.0962 0007559  65.5748 294.6229 14.49929319474749\\n0 TBA - TO BE ASSIGNED\\n1 85011U          23083.26404008 +.00784001 +00000+0 +17133+0 0  9998\\n2 85011  70.9671  36.2598 0018692 228.6739 131.2796 14.54761621281493\\n0 TBA - TO BE ASSIGNED\\n1 85266U          23075.98528839 +.00011920 +00000-0 +13244-1 0  9994\\n2 85266 062.7945 308.4825 3552827 179.3146 181.4834 07.81913690279286\\n0 TBA - TO BE ASSIGNED\\n1 89135U          23083.13240037 +.00038687 +00000-0 +17325-1 0  9993\\n2 89135 071.0617 256.2880 0129255 319.4028 039.7511 14.17968870005183\\n'"
